OSCAR 7 (AO-7)          
1 07530U 74089B   19280.48136216 -.00000026  00000-0  12060-3 0  9995
2 07530 101.7587 247.0596 0012317 131.8398 338.5641 12.53640147 54402
UOSAT 2 (UO-11)         
1 14781U 84021B   19280.14501904  .00000043  00000-0  11436-4 0  9996
2 14781  97.6059 299.6064 0007523 325.6626  34.4101 14.83110361915132
LUSAT (LO-19)           
1 20442U 90005G   19280.41466790  .00000013  00000-0  21029-4 0  9995
2 20442  98.6571 222.2709 0011678 177.7444 182.3794 14.32934339552233
ITAMSAT (IO-26)         
1 22826U 93061D   19280.51259746  .00000014  00000-0  23205-4 0  9999
2 22826  98.9067 271.7025 0009480  30.9525 329.2214 14.30402020357992
RADIO ROSTO (RS-15)     
1 23439U 94085A   19280.46782177 -.00000023  00000-0  56100-3 0  9990
2 23439  64.8153 296.9862 0145253  91.6517 270.1049 11.27568215 20543
JAS-2 (FO-29)           
1 24278U 96046B   19279.87426021 -.00000029  00000-0  88863-5 0  9996
2 24278  98.5543  58.4153 0349547 314.4931  42.8117 13.53093568142702
TECHSAT 1B (GO-32)      
1 25397U 98043D   19279.89009887 -.00000004  00000-0  17558-4 0  9992
2 25397  98.6962 218.7340 0002388  81.7327 278.4122 14.23671719103339
ISS (ZARYA)             
1 25544U 98067A   19280.83459193  .00000771  00000-0  21428-4 0  9998
2 25544  51.6435 162.6619 0007529 125.1797 325.4146 15.50175033192739
PCSAT (NO-44)           
1 26931U 01043C   19279.96489465 -.00000030  00000-0  20171-4 0  9997
2 26931  67.0505  79.1185 0007433 269.2685  90.7564 14.30554300940742
SAUDISAT 1C (SO-50)     
1 27607U 02058C   19279.88322392  .00000005  00000-0  21581-4 0  9998
2 27607  64.5547  72.6956 0075640 235.0984 124.2994 14.75576359903299
CUTE-1 (CO-55)          
1 27844U 03031E   19280.53070680  .00000052  00000-0  42936-4 0  9996
2 27844  98.6857 287.0921 0010897  72.5788 287.6581 14.22197892844043
CUBESAT XI-IV (CO-57)   
1 27848U 03031J   19279.99147963  .00000036  00000-0  36150-4 0  9990
2 27848  98.6932 287.0837 0010861  84.4402 275.8014 14.21790477843814
MOZHAYETS 4 (RS-22)     
1 27939U 03042A   19280.42273325  .00000086  00000-0  24068-4 0  9995
2 27939  98.0569  54.1814 0014139  79.2146 281.0655 14.66807719856778
CUBESAT XI-V            
1 28895U 05043F   19280.18616368  .00000135  00000-0  34844-4 0  9999
2 28895  97.9752  59.2320 0016835   7.6699 352.4758 14.63696726743642
CUTE-1.7+APD II (CO-65) 
1 32785U 08021C   19280.14600798  .00000180  00000-0  25062-4 0  9999
2 32785  97.5559 274.6840 0011557 255.3138 104.6799 14.88352889620116
DELFI-C3 (DO-64)        
1 32789U 08021G   19280.16885269  .00000795  00000-0  56780-4 0  9996
2 32789  97.4535 326.4467 0013763 106.2018 254.0725 15.07151458623603
SEEDS II (CO-66)        
1 32791U 08021J   19279.97808022  .00000199  00000-0  25572-4 0  9991
2 32791  97.5317 280.5978 0012165 226.0855 133.9360 14.90880812620541
YUBILEINY (RS-30)       
1 32953U 08025A   19280.47082500  .00000020  00000-0  75656-4 0  9998
2 32953  82.4986  75.8627 0018786 247.2891 112.6203 12.43091420516079
KKS-1 (KISEKI)          
1 33499U 09002H   19279.87637380  .00000058  00000-0  16544-4 0  9996
2 33499  98.3422 122.0644 0008413 209.2945 150.7793 14.75466786575041
SWISSCUBE               
1 35932U 09051B   19280.14706096  .00000130  00000-0  40385-4 0  9998
2 35932  98.5983  89.4269 0007587 178.7369 181.3849 14.56315198532852
BEESAT-1                
1 35933U 09051C   19280.07470882  .00000099  00000-0  33324-4 0  9991
2 35933  98.6001  91.1567 0005547 189.5799 170.5293 14.56400398532958
ITUPSAT1                
1 35935U 09051E   19279.92119907  .00000095  00000-0  33050-4 0  9995
2 35935  98.6111  91.2280 0007859 190.8258 169.2771 14.55556188532648
XIWANG-1 (HOPE-1)       
1 36122U 09072B   19279.63846330 -.00000048  00000-0 -14294-4 0  9991
2 36122 100.0782 276.8689 0008002  91.2141 268.9889 13.16351469471346
JUGNU                   
1 37839U 11058B   19279.73235601  .00000327  00000-0  32496-4 0  9990
2 37839  19.9625  27.4711 0019063  99.8022  52.0233 14.12660573412833
SRMSAT                  
1 37841U 11058D   19279.86848965  .00000296  00000-0  17644-4 0  9993
2 37841  19.9724  85.6989 0011882 327.2753 183.1918 14.10640486412171
M-CUBED & EXP-1 PRIME   
1 37855U 11061F   19279.92114689  .00000821  00000-0  48712-4 0  9992
2 37855 101.7149 232.1063 0173027 109.9292 252.0651 15.05619183433361
STRAND-1                
1 39090U 13009E   19280.50466377  .00000017  00000-0  20999-4 0  9993
2 39090  98.4778 124.5547 0008550 326.2856  33.7785 14.35099466346287
SOMP                    
1 39134U 13015E   19279.67854423  .00001187  00000-0  62888-4 0  9990
2 39134  64.8647  24.0479 0036472 285.0719  74.6374 15.20369940357316
BEESAT-3                
1 39135U 13015F   19279.79681879  .00000852  00000-0  51509-4 0  9993
2 39135  64.8692  43.5250 0035610 293.9335  65.8062 15.17634395356955
BEESAT-2                
1 39136U 13015G   19279.80986120  .00000765  00000-0  48190-4 0  9998
2 39136  64.8699  47.6218 0027413 299.3872  60.4517 15.17052993356875
ZACUBE-1 (TSHEPISOSAT)  
1 39417U 13066B   19280.02624182  .00000199  00000-0  31262-4 0  9992
2 39417  97.5629 287.3278 0059742  33.5271 326.9701 14.81156476317371
GOMX-1                  
1 39430U 13066Q   19280.42918225  .00000173  00000-0  40887-4 0  9990
2 39430  97.7577 229.7502 0149874 265.2347  93.1728 14.59293028312753
CUBEBUG-2 (LO-74)       
1 39440U 13066AA  19280.53313673  .00000210  00000-0  35979-4 0  9997
2 39440  97.6095 272.4642 0081729  84.9806 276.0728 14.75893699316325
FUNCUBE-1 (AO-73)       
1 39444U 13066AE  19279.76306041  .00000246  00000-0  36437-4 0  9994
2 39444  97.5602 289.1288 0058753  27.8689 332.5651 14.81983730316235
UWE-3                   
1 39446U 13066AG  19279.94131384  .00000214  00000-0  34872-4 0  9998
2 39446  97.5855 279.0388 0071360  60.9024 299.9309 14.78428774314968
SPROUT                  
1 39770U 14029E   19280.36332908  .00000634  00000-0  76056-4 0  9997
2 39770  97.8884  22.9697 0010044  82.3691 277.8658 14.87447023291280
UNISAT-6                
1 40012U 14033C   19280.19118005  .00000161  00000-0  31140-4 0  9994
2 40012  97.7412 141.9565 0059696 100.9610 259.8323 14.74013951284968
DUCHIFAT-1              
1 40021U 14033M   19279.83159746  .00000323  00000-0  38794-4 0  9992
2 40021  97.9240 204.7909 0014136  50.5860 309.6607 14.90696485287954
QB50P1                  
1 40025U 14033R   19279.84431732  .00000251  00000-0  32610-4 0  9996
2 40025  97.9035 199.3382 0013772  60.0957 300.1626 14.88992642287208
NUDT-PHONESAT           
1 40900U 15049B   19280.49891288  .00001893  00000-0  83097-4 0  9993
2 40900  97.4378 288.7672 0013494 149.7208   2.6007 15.23106700224520
ZDPS 2A                 
1 40901U 15049C   19280.37212170  .00000620  00000-0  33916-4 0  9990
2 40901  97.4626 284.6135 0013327 171.4473 296.2670 15.17858410224024
ZDPS 2B                 
1 40902U 15049D   19280.40982380  .00001203  00000-0  62899-4 0  9992
2 40902  97.4577 282.0575 0013510 168.6148 301.3415 15.17722128224000
XW-2A                   
1 40903U 15049E   19280.35141380  .00001660  00000-0  40623-4 0  9992
2 40903  97.3268 323.6894 0015027 102.5837 313.7867 15.42156784227301
KAITUO 1A               
1 40904U 15049F   19280.40959194  .00000742  00000-0  42643-4 0  9993
2 40904  97.4714 280.5472 0014252 178.1183 318.2987 15.15453635223768
2015-049G               
1 40905U 15049G   19280.44081916  .00000059  00000-0  67660-5 0  9994
2 40905  97.4759 278.0139 0015483 174.1628 345.1151 15.14353900223638
XW-2C                   
1 40906U 15049H   19280.45722463  .00000426  00000-0  25749-4 0  9994
2 40906  97.4719 280.7266 0014704 169.4391 347.3426 15.15770951223779
XW-2D                   
1 40907U 15049J   19280.48589503  .00000750  00000-0  42453-4 0  9995
2 40907  97.4696 280.4351 0014399 166.3793 344.9547 15.15968879223795
LILACSAT-2              
1 40908U 15049K   19280.45487022  .00000143  00000-0  11485-4 0  9993
2 40908  97.4832 279.1101 0015785 174.3796 341.6799 15.13859386223566
XW-2F                   
1 40910U 15049M   19280.47416220  .00001077  00000-0  57073-4 0  9990
2 40910  97.4668 282.5916 0015101 158.4982 355.2845 15.17452027223816
XW-2B                   
1 40911U 15049N   19280.45864206  .00000553  00000-0  32319-4 0  9994
2 40911  97.4722 281.0770 0014167 166.8996 349.5683 15.15896156223683
KAITUO 1B               
1 40912U 15049P   19280.46867410  .00000991  00000-0  49383-4 0  9991
2 40912  97.4509 286.4015 0015647 140.7097  17.1591 15.19781045224136
TIANWANG 1C (TW-1C)     
1 40926U 15051B   19280.54120656  .00012582  00000-0  17049-3 0  9994
2 40926  97.1240 326.6407 0006511 332.7609 121.6441 15.57790675227403
TIANWANG 1A (TW-1A)     
1 40928U 15051D   19280.46827256  .00002825  00000-0  69677-4 0  9991
2 40928  97.1372 309.3044 0012152  37.4431  58.7076 15.41300013226236
LAPAN-A2                
1 40931U 15052B   19280.72750698  .00001018  00000-0  52734-4 0  9999
2 40931   6.0094 344.6940 0013873 285.1909  74.7748 14.76619195217707
E-ST@R-II               
1 41459U 16025D   19280.19787570  .00001300  00000-0  70366-4 0  9991
2 41459  98.1007  12.2600 0166377 347.3344  12.3730 15.05689309189177
AAUSAT 4                
1 41460U 16025E   19280.49747277  .00000952  00000-0  51628-4 0  9998
2 41460  98.0949  14.1001 0156439 337.9967  21.4589 15.07663183189361
NUSAT-1 (FRESCO)        
1 41557U 16033B   19280.50587868  .00001157  00000-0  45821-4 0  9990
2 41557  97.4150   7.3575 0012119 265.6293  94.3561 15.27419737187004
BEESAT-4                
1 41619U 16040W   19279.74702432  .00001139  00000-0  50843-4 0  9997
2 41619  97.3564 339.8657 0011246   5.5009 354.6350 15.23344373170617
CAS-2T & KS-1Q          
1 41847U 16066G   19280.10335254  .00000041  00000-0  17723-4 0  9995
2 41847  98.6945 322.5286 0364737 266.4111  89.5304 14.38009218152863
NAYIF-1 (EO-88)         
1 42017U 17008BX  19280.14896838  .00001269  00000-0  52506-4 0  9997
2 42017  97.3927 346.0572 0007511 130.8782 229.3108 15.25765309146765
MAX VALIER SAT          
1 42778U 17036P   19280.23756994  .00000802  00000-0  37893-4 0  9994
2 42778  97.3428 335.4067 0012119 188.4684 171.6350 15.22166217127055
RADFXSAT (FOX-1B)       
1 43017U 17073E   19279.77030336  .00000315  00000-0  29871-4 0  9990
2 43017  97.7203 196.8211 0258355 159.6565 201.5172 14.78642201101520
FOX-1D (AO-92)          
1 43137U 18004AC  19280.42976190  .00000854  00000-0  38638-4 0  9998
2 43137  97.4775 347.9326 0008183 220.1255 139.9378 15.23624334 96356
ES'HAIL 2               
1 43700U 18090A   19280.29897237  .00000126  00000-0  00000+0 0  9997
2 43700   0.0149 252.2769 0001531 305.9029 310.9608  1.00271840  3408
FOX-1CLIFF (AO-95)      
1 43770U 18099N   19279.88676735  .00000550  00000-0  55767-4 0  9990
2 43770  97.7364 350.2984 0013742 331.8836  28.1641 14.94822221 45881
ITASAT 1                
1 43786U 18099AE  19279.87645671  .00000552  00000-0  55465-4 0  9998
2 43786  97.7377 350.5229 0014204 325.1409  34.8880 14.95183667 45898
JY1SAT (JO-97)          
1 43803U 18099AX  19280.38656177 -.00000059  00000-0 -94722-7 0  9995
2 43803  97.7334 350.9143 0014275 323.8474  36.1780 14.95325694 45965
PSAT2 (NO-104)          
1 44354U 19036R   19280.07643625  .00007616  00000-0  11440-3 0  9995
2 44354  28.5297 245.1895 0383426 124.0543 239.7059 14.98675344 15556
BRICSAT2 (NO-103)       
1 44355U 19036S   19280.24111423  .00011785  00000-0  17831-3 0  9993
2 44355  28.5300 243.6110 0378229 126.6614 236.9360 14.99928565 15581
JAISAT-1                
1 44419U 19038F   19280.12492045  .00000793  00000-0  49293-4 0  9990
2 44419  97.5018 240.3699 0020272 289.2416  70.6622 15.12355496 14157
